CCSDS_OMM_VERS = 2.0
CREATION_DATE  = 
ORIGINATOR     = 

OBJECT_NAME    = HULIANWANG DIGUI-125
OBJECT_ID      = 2025-295G
CENTER_NAME    = EARTH
REF_FRAME      = TEME
TIME_SYSTEM    = UTC
MEAN_ELEMENT_THEORY = SGP/SGP4

EPOCH          = 2025-12-30T03:45:15.681600
MEAN_MOTION    = 14.24632001
ECCENTRICITY   = .0011995
INCLINATION    = 50.0006
RA_OF_ASC_NODE = 298.6855
ARG_OF_PERICENTER = 315.0182
MEAN_ANOMALY   = 44.9759

EPHEMERIS_TYPE = 0
CLASSIFICATION_TYPE = U
NORAD_CAT_ID   = 67065
ELEMENT_SET_NO = 999
REV_AT_EPOCH   = 260
BSTAR          = .26233E-3
MEAN_MOTION_DOT = .454E-5
MEAN_MOTION_DDOT = 0

CCSDS_OMM_VERS = 2.0
CREATION_DATE  = 
ORIGINATOR     = 

OBJECT_NAME    = HULIANWANG DIGUI-126
OBJECT_ID      = 2025-295H
CENTER_NAME    = EARTH
REF_FRAME      = TEME
TIME_SYSTEM    = UTC
MEAN_ELEMENT_THEORY = SGP/SGP4

EPOCH          = 2025-12-30T03:43:51.991104
MEAN_MOTION    = 14.24652274
ECCENTRICITY   = .0011288
INCLINATION    = 50.0010
RA_OF_ASC_NODE = 298.6800
ARG_OF_PERICENTER = 308.5906
MEAN_ANOMALY   = 51.3996

EPHEMERIS_TYPE = 0
CLASSIFICATION_TYPE = U
NORAD_CAT_ID   = 67066
ELEMENT_SET_NO = 999
REV_AT_EPOCH   = 260
BSTAR          = .26576E-3
MEAN_MOTION_DOT = .463E-5
MEAN_MOTION_DDOT = 0

CCSDS_OMM_VERS = 2.0
CREATION_DATE  = 
ORIGINATOR     = 

OBJECT_NAME    = HULIANWANG DIGUI-127
OBJECT_ID      = 2025-295J
CENTER_NAME    = EARTH
REF_FRAME      = TEME
TIME_SYSTEM    = UTC
MEAN_ELEMENT_THEORY = SGP/SGP4

EPOCH          = 2025-12-30T03:42:27.693216
MEAN_MOTION    = 14.24667385
ECCENTRICITY   = .0010761
INCLINATION    = 50.0046
RA_OF_ASC_NODE = 298.6843
ARG_OF_PERICENTER = 314.9949
MEAN_ANOMALY   = 45.0092

EPHEMERIS_TYPE = 0
CLASSIFICATION_TYPE = U
NORAD_CAT_ID   = 67067
ELEMENT_SET_NO = 999
REV_AT_EPOCH   = 260
BSTAR          = -.44257E-3
MEAN_MOTION_DOT = -.1196E-4
MEAN_MOTION_DDOT = 0

CCSDS_OMM_VERS = 2.0
CREATION_DATE  = 
ORIGINATOR     = 

OBJECT_NAME    = CZ-12 R/B
OBJECT_ID      = 2025-295K
CENTER_NAME    = EARTH
REF_FRAME      = TEME
TIME_SYSTEM    = UTC
MEAN_ELEMENT_THEORY = SGP/SGP4

EPOCH          = 2025-12-30T02:25:02.002368
MEAN_MOTION    = 14.41132290
ECCENTRICITY   = .0056873
INCLINATION    = 49.9941
RA_OF_ASC_NODE = 297.0250
ARG_OF_PERICENTER = 198.1199
MEAN_ANOMALY   = 161.7694

EPHEMERIS_TYPE = 0
CLASSIFICATION_TYPE = U
NORAD_CAT_ID   = 67068
ELEMENT_SET_NO = 999
REV_AT_EPOCH   = 261
BSTAR          = .65664E-4
MEAN_MOTION_DOT = .49E-6
MEAN_MOTION_DDOT = 0

CCSDS_OMM_VERS = 2.0
CREATION_DATE  = 
ORIGINATOR     = 

OBJECT_NAME    = XIWANG-5 02
OBJECT_ID      = 2025-296A
CENTER_NAME    = EARTH
REF_FRAME      = TEME
TIME_SYSTEM    = UTC
MEAN_ELEMENT_THEORY = SGP/SGP4

EPOCH          = 2025-12-30T04:01:08.232096
MEAN_MOTION    = 15.12889093
ECCENTRICITY   = .0003367
INCLINATION    = 41.3532
RA_OF_ASC_NODE = 2.3903
ARG_OF_PERICENTER = 302.2053
MEAN_ANOMALY   = 57.8440

EPHEMERIS_TYPE = 0
CLASSIFICATION_TYPE = U
NORAD_CAT_ID   = 67069
ELEMENT_SET_NO = 999
REV_AT_EPOCH   = 260
BSTAR          = .97023E-3
MEAN_MOTION_DOT = .17245E-3
MEAN_MOTION_DDOT = 0

CCSDS_OMM_VERS = 2.0
CREATION_DATE  = 
ORIGINATOR     = 

OBJECT_NAME    = DEAR-5
OBJECT_ID      = 2025-296B
CENTER_NAME    = EARTH
REF_FRAME      = TEME
TIME_SYSTEM    = UTC
MEAN_ELEMENT_THEORY = SGP/SGP4

EPOCH          = 2025-12-30T02:00:26.084736
MEAN_MOTION    = 15.16962053
ECCENTRICITY   = .0018977
INCLINATION    = 41.3577
RA_OF_ASC_NODE = 2.6357
ARG_OF_PERICENTER = 142.4771
MEAN_ANOMALY   = 217.7378

EPHEMERIS_TYPE = 0
CLASSIFICATION_TYPE = U
NORAD_CAT_ID   = 67070
ELEMENT_SET_NO = 999
REV_AT_EPOCH   = 258
BSTAR          = .44434E-3
MEAN_MOTION_DOT = .8785E-4
MEAN_MOTION_DDOT = 0

CCSDS_OMM_VERS = 2.0
CREATION_DATE  = 
ORIGINATOR     = 

OBJECT_NAME    = RAISE-4
OBJECT_ID      = 2025-297B
CENTER_NAME    = EARTH
REF_FRAME      = TEME
TIME_SYSTEM    = UTC
MEAN_ELEMENT_THEORY = SGP/SGP4

EPOCH          = 2025-12-29T11:53:55.598496
MEAN_MOTION    = 15.07292688
ECCENTRICITY   = .00116336
INCLINATION    = 97.4855
RA_OF_ASC_NODE = 150.5934
ARG_OF_PERICENTER = 258.0383
MEAN_ANOMALY   = 101.9541

EPHEMERIS_TYPE = 0
CLASSIFICATION_TYPE = U
NORAD_CAT_ID   = 67073
ELEMENT_SET_NO = 999
REV_AT_EPOCH   = 231
BSTAR          = .57725434E-3
MEAN_MOTION_DOT = .8668E-4
MEAN_MOTION_DDOT = 0

CCSDS_OMM_VERS = 2.0
CREATION_DATE  = 
ORIGINATOR     = 

OBJECT_NAME    = ELECTRON KICK STAGE R/B
OBJECT_ID      = 2025-297C
CENTER_NAME    = EARTH
REF_FRAME      = TEME
TIME_SYSTEM    = UTC
MEAN_ELEMENT_THEORY = SGP/SGP4

EPOCH          = 2025-12-30T03:38:20.514912
MEAN_MOTION    = 15.63927079
ECCENTRICITY   = .0176915
INCLINATION    = 97.4796
RA_OF_ASC_NODE = 152.4978
ARG_OF_PERICENTER = 206.2837
MEAN_ANOMALY   = 152.9365

EPHEMERIS_TYPE = 0
CLASSIFICATION_TYPE = U
NORAD_CAT_ID   = 67074
ELEMENT_SET_NO = 999
REV_AT_EPOCH   = 249
BSTAR          = .22043E-2
MEAN_MOTION_DOT = .478506E-2
MEAN_MOTION_DDOT = .67561E-4

CCSDS_OMM_VERS = 2.0
CREATION_DATE  = 
ORIGINATOR     = 

OBJECT_NAME    = STARLINK-36230
OBJECT_ID      = 2025-298A
CENTER_NAME    = EARTH
REF_FRAME      = TEME
TIME_SYSTEM    = UTC
MEAN_ELEMENT_THEORY = SGP/SGP4

EPOCH          = 2025-12-30T04:00:03.000096
MEAN_MOTION    = 15.62331261
ECCENTRICITY   = .0003851
INCLINATION    = 69.9988
RA_OF_ASC_NODE = 200.5538
ARG_OF_PERICENTER = 275.2153
MEAN_ANOMALY   = 105.6551

EPHEMERIS_TYPE = 0
CLASSIFICATION_TYPE = U
NORAD_CAT_ID   = 67075
ELEMENT_SET_NO = 999
REV_AT_EPOCH   = 377
BSTAR          = -.22722E-1
MEAN_MOTION_DOT = -.1798643E-1
MEAN_MOTION_DDOT = 0

CCSDS_OMM_VERS = 2.0
CREATION_DATE  = 
ORIGINATOR     = 

OBJECT_NAME    = STARLINK-36240
OBJECT_ID      = 2025-298B
CENTER_NAME    = EARTH
REF_FRAME      = TEME
TIME_SYSTEM    = UTC
MEAN_ELEMENT_THEORY = SGP/SGP4

EPOCH          = 2025-12-30T04:00:03.000096
MEAN_MOTION    = 15.62329727
ECCENTRICITY   = .0003821
INCLINATION    = 69.9987
RA_OF_ASC_NODE = 200.5513
ARG_OF_PERICENTER = 275.1884
MEAN_ANOMALY   = 107.6069

EPHEMERIS_TYPE = 0
CLASSIFICATION_TYPE = U
NORAD_CAT_ID   = 67076
ELEMENT_SET_NO = 999
REV_AT_EPOCH   = 377
BSTAR          = -.22718E-1
MEAN_MOTION_DOT = -.17982E-1
MEAN_MOTION_DDOT = 0

CCSDS_OMM_VERS = 2.0
CREATION_DATE  = 
ORIGINATOR     = 

OBJECT_NAME    = STARLINK-36243
OBJECT_ID      = 2025-298C
CENTER_NAME    = EARTH
REF_FRAME      = TEME
TIME_SYSTEM    = UTC
MEAN_ELEMENT_THEORY = SGP/SGP4

EPOCH          = 2025-12-30T04:00:03.000096
MEAN_MOTION    = 15.62318779
ECCENTRICITY   = .0003795
INCLINATION    = 69.9987
RA_OF_ASC_NODE = 200.5488
ARG_OF_PERICENTER = 276.2130
MEAN_ANOMALY   = 108.6059

EPHEMERIS_TYPE = 0
CLASSIFICATION_TYPE = U
NORAD_CAT_ID   = 67077
ELEMENT_SET_NO = 999
REV_AT_EPOCH   = 377
BSTAR          = -.22729E-1
MEAN_MOTION_DOT = -.1798256E-1
MEAN_MOTION_DDOT = 0

CCSDS_OMM_VERS = 2.0
CREATION_DATE  = 
ORIGINATOR     = 

OBJECT_NAME    = STARLINK-36236
OBJECT_ID      = 2025-298D
CENTER_NAME    = EARTH
REF_FRAME      = TEME
TIME_SYSTEM    = UTC
MEAN_ELEMENT_THEORY = SGP/SGP4

EPOCH          = 2025-12-30T04:00:03.000096
MEAN_MOTION    = 15.62322472
ECCENTRICITY   = .0003884
INCLINATION    = 69.9988
RA_OF_ASC_NODE = 200.5467
ARG_OF_PERICENTER = 275.6417
MEAN_ANOMALY   = 111.0546

EPHEMERIS_TYPE = 0
CLASSIFICATION_TYPE = U
NORAD_CAT_ID   = 67078
ELEMENT_SET_NO = 999
REV_AT_EPOCH   = 377
BSTAR          = -.22704E-1
MEAN_MOTION_DOT = -.1796845E-1
MEAN_MOTION_DDOT = 0

CCSDS_OMM_VERS = 2.0
CREATION_DATE  = 
ORIGINATOR     = 

OBJECT_NAME    = STARLINK-36159
OBJECT_ID      = 2025-298E
CENTER_NAME    = EARTH
REF_FRAME      = TEME
TIME_SYSTEM    = UTC
MEAN_ELEMENT_THEORY = SGP/SGP4

EPOCH          = 2025-12-30T04:00:03.000096
MEAN_MOTION    = 15.58005905
ECCENTRICITY   = .0003757
INCLINATION    = 69.9987
RA_OF_ASC_NODE = 200.5696
ARG_OF_PERICENTER = 273.2514
MEAN_ANOMALY   = 93.0649

EPHEMERIS_TYPE = 0
CLASSIFICATION_TYPE = U
NORAD_CAT_ID   = 67079
ELEMENT_SET_NO = 999
REV_AT_EPOCH   = 377
BSTAR          = -.37926E-1
MEAN_MOTION_DOT = -.2486466E-1
MEAN_MOTION_DDOT = 0

CCSDS_OMM_VERS = 2.0
CREATION_DATE  = 
ORIGINATOR     = 

OBJECT_NAME    = STARLINK-36158
OBJECT_ID      = 2025-298F
CENTER_NAME    = EARTH
REF_FRAME      = TEME
TIME_SYSTEM    = UTC
MEAN_ELEMENT_THEORY = SGP/SGP4

EPOCH          = 2025-12-30T04:00:03.000096
MEAN_MOTION    = 15.62299223
ECCENTRICITY   = .0003764
INCLINATION    = 69.9987
RA_OF_ASC_NODE = 200.5417
ARG_OF_PERICENTER = 277.8872
MEAN_ANOMALY   = 112.8304

EPHEMERIS_TYPE = 0
CLASSIFICATION_TYPE = U
NORAD_CAT_ID   = 67080
ELEMENT_SET_NO = 999
REV_AT_EPOCH   = 371
BSTAR          = -.22649E-1
MEAN_MOTION_DOT = -.1791359E-1
MEAN_MOTION_DDOT = 0

CCSDS_OMM_VERS = 2.0
CREATION_DATE  = 
ORIGINATOR     = 

OBJECT_NAME    = STARLINK-35864
OBJECT_ID      = 2025-298G
CENTER_NAME    = EARTH
REF_FRAME      = TEME
TIME_SYSTEM    = UTC
MEAN_ELEMENT_THEORY = SGP/SGP4

EPOCH          = 2025-12-30T04:00:03.000096
MEAN_MOTION    = 15.62296800
ECCENTRICITY   = .0003645
INCLINATION    = 69.9987
RA_OF_ASC_NODE = 200.5395
ARG_OF_PERICENTER = 277.7506
MEAN_ANOMALY   = 114.9011

EPHEMERIS_TYPE = 0
CLASSIFICATION_TYPE = U
NORAD_CAT_ID   = 67081
ELEMENT_SET_NO = 999
REV_AT_EPOCH   = 377
BSTAR          = -.22668E-1
MEAN_MOTION_DOT = -.1792459E-1
MEAN_MOTION_DDOT = 0

